[{"name":"Afghanistan","tld":".af","cca2":"AF","ccn3":4,"cca3":"AFG","currency":"AFN","calling_code":"93","capital":"Kabul","alt_spellings":"AF,Af\u0121\u0101nist\u0101n","relevance":0,"region":"Asia","subregion":"Southern Asia"},
{"name":"land Islands","tld":".ax","cca2":"AX","ccn3":248,"cca3":"ALA","currency":"EUR","calling_code":"358","capital":"Mariehamn","alt_spellings":"AX,Aaland,Aland","relevance":0.5,"region":"Europe","subregion":"Northern Europe"},
{"name":"Albania","tld":".al","cca2":"AL","ccn3":8,"cca3":"ALB","currency":"ALL","calling_code":"355","capital":"Tirana","alt_spellings":"AL,Shqip\u00ebri,Shqip\u00ebria,Shqipnia","relevance":0,"region":"Europe","subregion":"Southern Europe"},
{"name":"Algeria","tld":".dz","cca2":"DZ","ccn3":12,"cca3":"DZA","currency":"DZD","calling_code":"213","capital":"Algiers","alt_spellings":"DZ,al-Jaz\u0101'ir","relevance":0,"region":"Africa","subregion":"Northern Africa"},
{"name":"American Samoa","tld":".as","cca2":"AS","ccn3":16,"cca3":"ASM","currency":"USD","calling_code":"1684","capital":"Pago Pago","alt_spellings":"AS,Amerika S\u0101moa","relevance":0.5,"region":"Oceania","subregion":"Polynesia"},
{"name":"Andorra","tld":".ad","cca2":"AD","ccn3":20,"cca3":"AND","currency":"EUR","calling_code":"376","capital":"Andorra la Vella","alt_spellings":"AD","relevance":0.5,"region":"Europe","subregion":"Southern Europe"},
{"name":"Angola","tld":".ao","cca2":"AO","ccn3":24,"cca3":"AGO","currency":"AOA","calling_code":"244","capital":"Luanda","alt_spellings":"AO","relevance":0,"region":"Africa","subregion":"Middle Africa"},
{"name":"Anguilla","tld":".ai","cca2":"AI","ccn3":660,"cca3":"AIA","currency":"XCD","calling_code":"1264","capital":"The Valley","alt_spellings":"AI","relevance":0.5,"region":"Americas","subregion":"Caribbean"},
{"name":"Antarctica","tld":".aq","cca2":"AQ","ccn3":10,"cca3":"ATA","currency":"","calling_code":"","capital":"","alt_spellings":"AQ","relevance":0.5,"region":"","subregion":""},
{"name":"Antigua and Barbuda","tld":".ag","cca2":"AG","ccn3":28,"cca3":"ATG","currency":"XCD","calling_code":"1268","capital":"Saint John's","alt_spellings":"AG","relevance":0.5,"region":"Americas","subregion":"Caribbean"},
{"name":"Argentina","tld":".ar","cca2":"AR","ccn3":32,"cca3":"ARG","currency":"ARS","calling_code":"54","capital":"Buenos Aires","alt_spellings":"AR","relevance":0,"region":"Americas","subregion":"South America"},
{"name":"Armenia","tld":".am","cca2":"AM","ccn3":51,"cca3":"ARM","currency":"AMD","calling_code":"374","capital":"Yerevan","alt_spellings":"AM,Hayastan","relevance":0,"region":"Asia","subregion":"Western Asia"},
{"name":"Aruba","tld":".aw","cca2":"AW","ccn3":533,"cca3":"ABW","currency":"AWG","calling_code":"297","capital":"Oranjestad","alt_spellings":"AW","relevance":0.5,"region":"Americas","subregion":"Caribbean"},
{"name":"Australia","tld":".au","cca2":"AU","ccn3":36,"cca3":"AUS","currency":"AUD","calling_code":"61","capital":"Canberra","alt_spellings":"AU","relevance":1.5,"region":"Oceania","subregion":"Australia,New Zealand"},
{"name":"Austria","tld":".at","cca2":"AT","ccn3":40,"cca3":"AUT","currency":"EUR","calling_code":"43","capital":"Vienna","alt_spellings":"AT,\u00d6sterreich,Osterreich,Oesterreich","relevance":0,"region":"Europe","subregion":"Western Europe"},
{"name":"Azerbaijan","tld":".az","cca2":"AZ","ccn3":31,"cca3":"AZE","currency":"AZN","calling_code":"994","capital":"Baku","alt_spellings":"AZ","relevance":0,"region":"Asia","subregion":"Western Asia"},
{"name":"Bahamas","tld":".bs","cca2":"BS","ccn3":44,"cca3":"BHS","currency":"BSD","calling_code":"1242","capital":"Nassau","alt_spellings":"BS","relevance":0,"region":"Americas","subregion":"Caribbean"},
{"name":"Bahrain","tld":".bh","cca2":"BH","ccn3":48,"cca3":"BHR","currency":"BHD","calling_code":"973","capital":"Manama","alt_spellings":"BH","relevance":0,"region":"Asia","subregion":"Western Asia"},
{"name":"Bangladesh","tld":".bd","cca2":"BD","ccn3":50,"cca3":"BGD","currency":"BDT","calling_code":"880","capital":"Dhaka","alt_spellings":"BD","relevance":2,"region":"Asia","subregion":"Southern Asia"},
{"name":"Barbados","tld":".bb","cca2":"BB","ccn3":52,"cca3":"BRB","currency":"BBD","calling_code":"1246","capital":"Bridgetown","alt_spellings":"BB","relevance":0,"region":"Americas","subregion":"Caribbean"},
{"name":"Belarus","tld":".by","cca2":"BY","ccn3":112,"cca3":"BLR","currency":"BYR","calling_code":"375","capital":"Minsk","alt_spellings":"BY","relevance":0,"region":"Europe","subregion":"Eastern Europe"},
{"name":"Belgium","tld":".be","cca2":"BE","ccn3":56,"cca3":"BEL","currency":"EUR","calling_code":"32","capital":"Brussels","alt_spellings":"BE,Belgi\u00eb,Belgie,Belgien,Belgique","relevance":1.5,"region":"Europe","subregion":"Western Europe"},
{"name":"Belize","tld":".bz","cca2":"BZ","ccn3":84,"cca3":"BLZ","currency":"BZD","calling_code":"501","capital":"Belmopan","alt_spellings":"BZ","relevance":0,"region":"Americas","subregion":"Central America"},
{"name":"Benin","tld":".bj","cca2":"BJ","ccn3":204,"cca3":"BEN","currency":"XOF","calling_code":"229","capital":"Porto-Novo","alt_spellings":"BJ","relevance":0,"region":"Africa","subregion":"Western Africa"},
{"name":"Bermuda","tld":".bm","cca2":"BM","ccn3":60,"cca3":"BMU","currency":"BMD","calling_code":"1441","capital":"Hamilton","alt_spellings":"BM","relevance":0.5,"region":"Americas","subregion":"Northern America"},
{"name":"Bhutan","tld":".bt","cca2":"BT","ccn3":64,"cca3":"BTN","currency":"BTN,INR","calling_code":"975","capital":"Thimphu","alt_spellings":"BT","relevance":0,"region":"Asia","subregion":"Southern Asia"},
{"name":"Bolivia","tld":".bo","cca2":"BO","ccn3":68,"cca3":"BOL","currency":"BOB,BOV","calling_code":"591","capital":"Sucre","alt_spellings":"BO","relevance":0,"region":"Americas","subregion":"South America"},
{"name":"Bonaire","tld":".bq","cca2":"BQ","ccn3":535,"cca3":"BES","currency":"USD","calling_code":"5997","capital":"Kralendijk","alt_spellings":"BQ","relevance":0,"region":"","subregion":""},
{"name":"Bosnia and Herzegovina","tld":".ba","cca2":"BA","ccn3":70,"cca3":"BIH","currency":"BAM","calling_code":"387","capital":"Sarajevo","alt_spellings":"BA","relevance":0,"region":"Europe","subregion":"Southern Europe"},
{"name":"Botswana","tld":".bw","cca2":"BW","ccn3":72,"cca3":"BWA","currency":"BWP","calling_code":"267","capital":"Gaborone","alt_spellings":"BW","relevance":0,"region":"Africa","subregion":"Southern Africa"},
{"name":"Bouvet Island","tld":".bv","cca2":"BV","ccn3":74,"cca3":"BVT","currency":"NOK","calling_code":"","capital":"","alt_spellings":"BV,Bouvet\u00f8ya","relevance":0,"region":"","subregion":""},
{"name":"Brazil","tld":".br","cca2":"BR","ccn3":76,"cca3":"BRA","currency":"BRL","calling_code":"55","capital":"Bras\u00edlia","alt_spellings":"BR,Brasil","relevance":2,"region":"Americas","subregion":"South America"},
{"name":"British Indian Ocean Territory","tld":".io","cca2":"IO","ccn3":86,"cca3":"IOT","currency":"USD","calling_code":"246","capital":"","alt_spellings":"IO","relevance":0,"region":"Africa","subregion":"Eastern Africa"},
{"name":"Brunei Darussalam","tld":".bn","cca2":"BN","ccn3":96,"cca3":"BRN","currency":"BND","calling_code":"673","capital":"Bandar Seri Begawan","alt_spellings":"BN","relevance":0,"region":"Asia","subregion":"South-Eastern,Asia"},
{"name":"Bulgaria","tld":".bg","cca2":"BG","ccn3":100,"cca3":"BGR","currency":"BGN","calling_code":"359","capital":"Sofia","alt_spellings":"BG","relevance":0,"region":"Europe","subregion":"Eastern Europe"},
{"name":"Burkina Faso","tld":".bf","cca2":"BF","ccn3":854,"cca3":"BFA","currency":"XOF","calling_code":"226","capital":"Ouagadougou","alt_spellings":"BF","relevance":0,"region":"Africa","subregion":"Western Africa"},
{"name":"Burundi","tld":".bi","cca2":"BI","ccn3":108,"cca3":"BDI","currency":"BIF","calling_code":"257","capital":"Bujumbura","alt_spellings":"BI","relevance":0,"region":"Africa","subregion":"Eastern Africa"},
{"name":"Cambodia","tld":".kh","cca2":"KH","ccn3":116,"cca3":"KHM","currency":"KHR","calling_code":"855","capital":"Phnom Penh","alt_spellings":"KH","relevance":0,"region":"Asia","subregion":"South-Eastern,Asia"},
{"name":"Cameroon","tld":".cm","cca2":"CM","ccn3":120,"cca3":"CMR","currency":"XAF","calling_code":"237","capital":"Yaound\u00e9","alt_spellings":"CM","relevance":0,"region":"Africa","subregion":"Middle Africa"},
{"name":"Canada","tld":".ca","cca2":"CA","ccn3":124,"cca3":"CAN","currency":"CAD","calling_code":"1","capital":"Ottawa","alt_spellings":"CA","relevance":2,"region":"Americas","subregion":"Northern America"},
{"name":"Cape Verde","tld":".cv","cca2":"CV","ccn3":132,"cca3":"CPV","currency":"CVE","calling_code":"238","capital":"Praia","alt_spellings":"CV,Cabo","relevance":0,"region":"Africa","subregion":"Western Africa"},
{"name":"Cayman Islands","tld":".ky","cca2":"KY","ccn3":136,"cca3":"CYM","currency":"KYD","calling_code":"1345","capital":"George Town","alt_spellings":"KY","relevance":0.5,"region":"Americas","subregion":"Caribbean"},
{"name":"Central African Republic","tld":".cf","cca2":"CF","ccn3":140,"cca3":"CAF","currency":"XAF","calling_code":"236","capital":"Bangui","alt_spellings":"CF","relevance":0,"region":"Africa","subregion":"Middle Africa"},
{"name":"Chad","tld":".td","cca2":"TD","ccn3":148,"cca3":"TCD","currency":"XAF","calling_code":"235","capital":"N'Djamena","alt_spellings":"TD,Tchad","relevance":0,"region":"Africa","subregion":"Middle Africa"},
{"name":"Chile","tld":".cl","cca2":"CL","ccn3":152,"cca3":"CHL","currency":"CLF,CLP","calling_code":"56","capital":"Santiago","alt_spellings":"CL","relevance":0,"region":"Americas","subregion":"South America"},
{"name":"China","tld":".cn","cca2":"CN","ccn3":156,"cca3":"CHN","currency":"CNY","calling_code":"86","capital":"Beijing","alt_spellings":"CN,Zhongguo,Zhonghua,Peoples Republic","relevance":0,"region":"Asia","subregion":"Eastern Asia"},
{"name":"Christmas Island","tld":".cx","cca2":"CX","ccn3":162,"cca3":"CXR","currency":"AUD","calling_code":"61","capital":"Flying Fish Cove","alt_spellings":"CX","relevance":0.5,"region":"Oceania","subregion":"Australia,New Zealand"},
{"name":"Cocos (Keeling) Islands","tld":".cc","cca2":"CC","ccn3":166,"cca3":"CCK","currency":"AUD","calling_code":"61","capital":"West Island","alt_spellings":"CC","relevance":0,"region":"Oceania","subregion":"Australia,New Zealand"},
{"name":"Colombia","tld":".co","cca2":"CO","ccn3":170,"cca3":"COL","currency":"COP,COU","calling_code":"57","capital":"Bogot\u00e1","alt_spellings":"CO","relevance":0,"region":"Americas","subregion":"South America"},
{"name":"Comoros","tld":".km","cca2":"KM","ccn3":174,"cca3":"COM","currency":"KMF","calling_code":"269","capital":"Moroni","alt_spellings":"KM","relevance":0,"region":"Africa","subregion":"Eastern Africa"},
{"name":"Republic of the Congo","tld":".cg","cca2":"CG","ccn3":178,"cca3":"COG","currency":"XAF","calling_code":"242","capital":"Brazzaville","alt_spellings":"CG","relevance":0,"region":"Africa","subregion":"Middle Africa"},
{"name":"Democratic Republic of the Congo","tld":".cd","cca2":"CD","ccn3":180,"cca3":"COD","currency":"CDF","calling_code":"243","capital":"Kinshasa","alt_spellings":"CD,Congo-Brazzaville,Repubilika ya Kongo","relevance":0,"region":"Africa","subregion":"Middle Africa"},
{"name":"Cook Islands","tld":".ck","cca2":"CK","ccn3":184,"cca3":"COK","currency":"NZD","calling_code":"682","capital":"Avarua","alt_spellings":"CK","relevance":0.5,"region":"Oceania","subregion":"Polynesia"},
{"name":"Costa Rica","tld":".cr","cca2":"CR","ccn3":188,"cca3":"CRI","currency":"CRC","calling_code":"506","capital":"San Jos\u00e9","alt_spellings":"CR","relevance":0,"region":"Americas","subregion":"Central America"},
{"name":"C\u00f4te d'Ivoire","tld":".ci","cca2":"CI","ccn3":384,"cca3":"CIV","currency":"XOF","calling_code":"225","capital":"Yamoussoukro","alt_spellings":"CI,Cote,dIvoire","relevance":0,"region":"Africa","subregion":"Western Africa"},
{"name":"Croatia","tld":".hr","cca2":"HR","ccn3":191,"cca3":"HRV","currency":"HRK","calling_code":"385","capital":"Zagreb","alt_spellings":"HR,Hrvatska","relevance":0,"region":"Europe","subregion":"Southern Europe"},
{"name":"Cuba","tld":".cu","cca2":"CU","ccn3":192,"cca3":"CUB","currency":"CUC,CUP","calling_code":"53","capital":"Havana","alt_spellings":"CU","relevance":0,"region":"Americas","subregion":"Caribbean"},
{"name":"Cura\u00e7ao","tld":".cw","cca2":"CW","ccn3":531,"cca3":"CUW","currency":"ANG","calling_code":"5999","capital":"Willemstad","alt_spellings":"CW,Curacao","relevance":0,"region":"","subregion":""},
{"name":"Cyprus","tld":".cy","cca2":"CY","ccn3":196,"cca3":"CYP","currency":"EUR","calling_code":"357","capital":"Nicosia","alt_spellings":"CY,K\u00fdpros","relevance":0,"region":"Asia","subregion":"Western Asia"},
{"name":"Czech Republic","tld":".cz","cca2":"CZ","ccn3":203,"cca3":"CZE","currency":"CZK","calling_code":"420","capital":"Prague","alt_spellings":"CZ,\u010cesk\u00e1 republika,\u010cesko","relevance":0,"region":"Europe","subregion":"Eastern Europe"},
{"name":"Denmark","tld":".dk","cca2":"DK","ccn3":208,"cca3":"DNK","currency":"DKK","calling_code":"45","capital":"Copenhagen","alt_spellings":"DK,Danmark","relevance":1.5,"region":"Europe","subregion":"Northern Europe"},
{"name":"Djibouti","tld":".dj","cca2":"DJ","ccn3":262,"cca3":"DJI","currency":"DJF","calling_code":"253","capital":"Djibouti","alt_spellings":"DJ,Jabuuti,Gabuuti","relevance":0,"region":"Africa","subregion":"Eastern Africa"},
{"name":"Dominica","tld":".dm","cca2":"DM","ccn3":212,"cca3":"DMA","currency":"XCD","calling_code":"1767","capital":"Roseau","alt_spellings":"DM,Dominique","relevance":0.5,"region":"Americas","subregion":"Caribbean"},
{"name":"Dominican Republic","tld":".do","cca2":"DO","ccn3":214,"cca3":"DOM","currency":"DOP","calling_code":"1809,1829,1849","capital":"Santo Domingo","alt_spellings":"DO","relevance":0,"region":"Americas","subregion":"Caribbean"},
{"name":"Ecuador","tld":".ec","cca2":"EC","ccn3":218,"cca3":"ECU","currency":"USD","calling_code":"593","capital":"Quito","alt_spellings":"EC","relevance":0,"region":"Americas","subregion":"South America"},
{"name":"Egypt","tld":".eg","cca2":"EG","ccn3":818,"cca3":"EGY","currency":"EGP","calling_code":"20","capital":"Cairo","alt_spellings":"EG","relevance":1.5,"region":"Africa","subregion":"Northern Africa"},
{"name":"El Salvador","tld":".sv","cca2":"SV","ccn3":222,"cca3":"SLV","currency":"SVC,USD","calling_code":"503","capital":"San Salvador","alt_spellings":"SV","relevance":0,"region":"Americas","subregion":"Central America"},
{"name":"Equatorial Guinea","tld":".gq","cca2":"GQ","ccn3":226,"cca3":"GNQ","currency":"XAF","calling_code":"240","capital":"Malabo","alt_spellings":"GQ","relevance":0,"region":"Africa","subregion":"Middle Africa"},
{"name":"Eritrea","tld":".er","cca2":"ER","ccn3":232,"cca3":"ERI","currency":"ERN","calling_code":"291","capital":"Asmara","alt_spellings":"ER","relevance":0,"region":"Africa","subregion":"Eastern Africa"},
{"name":"Estonia","tld":".ee","cca2":"EE","ccn3":233,"cca3":"EST","currency":"EUR","calling_code":"372","capital":"Tallinn","alt_spellings":"EE,Eesti","relevance":0,"region":"Europe","subregion":"Northern Europe"},
{"name":"Ethiopia","tld":".et","cca2":"ET","ccn3":231,"cca3":"ETH","currency":"ETB","calling_code":"251","capital":"Addis Ababa","alt_spellings":"ET","relevance":0,"region":"Africa","subregion":"Eastern Africa"},
{"name":"Falkland Islands (Malvinas)","tld":".fk","cca2":"FK","ccn3":238,"cca3":"FLK","currency":"FKP","calling_code":"500","capital":"Stanley","alt_spellings":"FK","relevance":0.5,"region":"Americas","subregion":"South America"},
{"name":"Faroe Islands","tld":".fo","cca2":"FO","ccn3":234,"cca3":"FRO","currency":"DKK","calling_code":"298","capital":"T\u00f3rshavn","alt_spellings":"FO,F\u00f8royar,F\u00e6r\u00f8erne","relevance":0.5,"region":"Europe","subregion":"Northern Europe"},
{"name":"Fiji","tld":".fj","cca2":"FJ","ccn3":242,"cca3":"FJI","currency":"FJD","calling_code":"679","capital":"Suva","alt_spellings":"FJ,Viti","relevance":0,"region":"Oceania","subregion":"Melanesia"},
{"name":"Finland","tld":".fi","cca2":"FI","ccn3":246,"cca3":"FIN","currency":"EUR","calling_code":"358","capital":"Helsinki","alt_spellings":"FI,Suomi","relevance":0,"region":"Europe","subregion":"Northern Europe"},
{"name":"France","tld":".fr","cca2":"FR","ccn3":250,"cca3":"FRA","currency":"EUR","calling_code":"33","capital":"Paris","alt_spellings":"FR,R\u00e9publique fran\u00e7aise","relevance":2.5,"region":"Europe","subregion":"Western Europe"},
{"name":"French Guiana","tld":".gf","cca2":"GF","ccn3":254,"cca3":"GUF","currency":"EUR","calling_code":"594","capital":"Cayenne","alt_spellings":"GF","relevance":0,"region":"Americas","subregion":"South America"},
{"name":"French Polynesia","tld":".pf","cca2":"PF","ccn3":258,"cca3":"PYF","currency":"XPF","calling_code":"689","capital":"Papeete","alt_spellings":"PF,Polyn\u00e9sie fran\u00e7aise","relevance":0,"region":"Oceania","subregion":"Polynesia"},
{"name":"French Southern Territories","tld":".tf","cca2":"TF","ccn3":260,"cca3":"ATF","currency":"EUR","calling_code":"","capital":"Port-Aux-Fran\u00e7ais","alt_spellings":"TF","relevance":0,"region":"","subregion":""},
{"name":"Gabon","tld":".ga","cca2":"GA","ccn3":266,"cca3":"GAB","currency":"XAF","calling_code":"241","capital":"Libreville","alt_spellings":"GA,R\u00e9publique Gabonaise","relevance":0,"region":"Africa","subregion":"Middle Africa"},
{"name":"Gambia","tld":".gm","cca2":"GM","ccn3":270,"cca3":"GMB","currency":"GMD","calling_code":"220","capital":"Banjul","alt_spellings":"GM","relevance":0,"region":"Africa","subregion":"Western Africa"},
{"name":"Georgia","tld":".ge","cca2":"GE","ccn3":268,"cca3":"GEO","currency":"GEL","calling_code":"995","capital":"Tbilisi","alt_spellings":"GE","relevance":0,"region":"Asia","subregion":"Western Asia"},
{"name":"Germany","tld":".de","cca2":"DE","ccn3":276,"cca3":"DEU","currency":"EUR","calling_code":"49","capital":"Berlin","alt_spellings":"DE,Bundesrepublik,Deutschland","relevance":3,"region":"Europe","subregion":"Western Europe"},
{"name":"Ghana","tld":".gh","cca2":"GH","ccn3":288,"cca3":"GHA","currency":"GHS","calling_code":"233","capital":"Accra","alt_spellings":"GH","relevance":0,"region":"Africa","subregion":"Western Africa"},
{"name":"Gibraltar","tld":".gi","cca2":"GI","ccn3":292,"cca3":"GIB","currency":"GIP","calling_code":"350","capital":"Gibraltar","alt_spellings":"GI","relevance":0.5,"region":"Europe","subregion":"Southern Europe"},
{"name":"Greece","tld":".gr","cca2":"GR","ccn3":300,"cca3":"GRC","currency":"EUR","calling_code":"30","capital":"Athens","alt_spellings":"GR","relevance":1.5,"region":"Europe","subregion":"Southern Europe"},
{"name":"Greenland","tld":".gl","cca2":"GL","ccn3":304,"cca3":"GRL","currency":"DKK","calling_code":"299","capital":"Nuuk","alt_spellings":"GL,gr\u00f8nland","relevance":0.5,"region":"Americas","subregion":"Northern America"},
{"name":"Grenada","tld":".gd","cca2":"GD","ccn3":308,"cca3":"GRD","currency":"XCD","calling_code":"1473","capital":"St. George's","alt_spellings":"GD","relevance":0,"region":"Americas","subregion":"Caribbean"},
{"name":"Guadeloupe","tld":".gp","cca2":"GP","ccn3":312,"cca3":"GLP","currency":"EUR","calling_code":"590","capital":"Basse-Terre","alt_spellings":"GP","relevance":0,"region":"Americas","subregion":"Caribbean"},
{"name":"Guam","tld":".gu","cca2":"GU","ccn3":316,"cca3":"GUM","currency":"USD","calling_code":"1671","capital":"Hag\u00e5t\u00f1a","alt_spellings":"GU","relevance":0,"region":"Oceania","subregion":"Micronesia"},
{"name":"Guatemala","tld":".gt","cca2":"GT","ccn3":320,"cca3":"GTM","currency":"GTQ","calling_code":"502","capital":"Guatemala City","alt_spellings":"GT","relevance":0,"region":"Americas","subregion":"Central America"},
{"name":"Guernsey","tld":".gg","cca2":"GG","ccn3":831,"cca3":"GGY","currency":"GBP","calling_code":"44","capital":"St. Peter Port","alt_spellings":"GG","relevance":0.5,"region":"Europe","subregion":"Northern Europe"},
{"name":"Guinea","tld":".gn","cca2":"GN","ccn3":324,"cca3":"GIN","currency":"GNF","calling_code":"224","capital":"Conakry","alt_spellings":"GN","relevance":0,"region":"Africa","subregion":"Western Africa"},
{"name":"Guinea-Bissau","tld":".gw","cca2":"GW","ccn3":624,"cca3":"GNB","currency":"XOF","calling_code":"245","capital":"Bissau","alt_spellings":"GW","relevance":0,"region":"Africa","subregion":"Western Africa"},
{"name":"Guyana","tld":".gy","cca2":"GY","ccn3":328,"cca3":"GUY","currency":"GYD","calling_code":"592","capital":"Georgetown","alt_spellings":"GY","relevance":0,"region":"Americas","subregion":"South America"},
{"name":"Haiti","tld":".ht","cca2":"HT","ccn3":332,"cca3":"HTI","currency":"HTG,USD","calling_code":"509","capital":"Port-au-Prince","alt_spellings":"HT","relevance":0,"region":"Americas","subregion":"Caribbean"},
{"name":"Heard Island and McDonald Islands","tld":".hm","cca2":"HM","ccn3":334,"cca3":"HMD","currency":"AUD","calling_code":"","capital":"","alt_spellings":"HM","relevance":0,"region":"","subregion":""},
{"name":"Vatican City","tld":".va","cca2":"VA","ccn3":336,"cca3":"VAT","currency":"EUR","calling_code":"39066,379","capital":"Vatican City","alt_spellings":"VA","relevance":0.5,"region":"Europe","subregion":"Southern Europe"},
{"name":"Honduras","tld":".hn","cca2":"HN","ccn3":340,"cca3":"HND","currency":"HNL","calling_code":"504","capital":"Tegucigalpa","alt_spellings":"HN","relevance":0,"region":"Americas","subregion":"Central America"},
{"name":"Hong Kong","tld":".hk","cca2":"HK","ccn3":344,"cca3":"HKG","currency":"HKD","calling_code":"852","capital":"City of Victoria","alt_spellings":"HK","relevance":0,"region":"Asia","subregion":"Eastern Asia"},
{"name":"Hungary","tld":".hu","cca2":"HU","ccn3":348,"cca3":"HUN","currency":"HUF","calling_code":"36","capital":"Budapest","alt_spellings":"HU,Magyarorsz\u00e1g","relevance":0,"region":"Europe","subregion":"Eastern Europe"},
{"name":"Iceland","tld":".is","cca2":"IS","ccn3":352,"cca3":"ISL","currency":"ISK","calling_code":"354","capital":"Reykjavik","alt_spellings":"IS,Island","relevance":0,"region":"Europe","subregion":"Northern Europe"},
{"name":"India","tld":".in","cca2":"IN","ccn3":356,"cca3":"IND","currency":"INR","calling_code":"91","capital":"New Delhi","alt_spellings":"IN,Hindustan","relevance":3,"region":"Asia","subregion":"Southern Asia"},
{"name":"Indonesia","tld":".id","cca2":"ID","ccn3":360,"cca3":"IDN","currency":"IDR","calling_code":"62","capital":"Jakarta","alt_spellings":"ID","relevance":2,"region":"Asia","subregion":"South-Eastern,Asia"},
{"name":"Iran","tld":".ir","cca2":"IR","ccn3":364,"cca3":"IRN","currency":"IRR","calling_code":"98","capital":"Tehran","alt_spellings":"IR","relevance":0,"region":"Asia","subregion":"Southern Asia"},
{"name":"Iraq","tld":".iq","cca2":"IQ","ccn3":368,"cca3":"IRQ","currency":"IQD","calling_code":"964","capital":"Baghdad","alt_spellings":"IQ","relevance":0,"region":"Asia","subregion":"Western Asia"},
{"name":"Ireland","tld":".ie","cca2":"IE","ccn3":372,"cca3":"IRL","currency":"EUR","calling_code":"353","capital":"Dublin","alt_spellings":"IE,\u00c9ire","relevance":1.2,"region":"Europe","subregion":"Northern Europe"},
{"name":"Isle of Man","tld":".im","cca2":"IM","ccn3":833,"cca3":"IMN","currency":"GBP","calling_code":"44","capital":"Douglas","alt_spellings":"IM","relevance":0.5,"region":"Europe","subregion":"Northern Europe"},
{"name":"Israel","tld":".il","cca2":"IL","ccn3":376,"cca3":"ISR","currency":"ILS","calling_code":"972","capital":"Jerusalem","alt_spellings":"IL","relevance":0,"region":"Asia","subregion":"Western Asia"},
{"name":"Italy","tld":".it","cca2":"IT","ccn3":380,"cca3":"ITA","currency":"EUR","calling_code":"39","capital":"Rome","alt_spellings":"IT,Italia","relevance":2,"region":"Europe","subregion":"Southern Europe"},
{"name":"Jamaica","tld":".jm","cca2":"JM","ccn3":388,"cca3":"JAM","currency":"JMD","calling_code":"1876","capital":"Kingston","alt_spellings":"JM","relevance":0,"region":"Americas","subregion":"Caribbean"},
{"name":"Japan","tld":".jp","cca2":"JP","ccn3":392,"cca3":"JPN","currency":"JPY","calling_code":"81","capital":"Tokyo","alt_spellings":"JP,Nippon,Nihon","relevance":2.5,"region":"Asia","subregion":"Eastern Asia"},
{"name":"Jersey","tld":".je","cca2":"JE","ccn3":832,"cca3":"JEY","currency":"GBP","calling_code":"44","capital":"Saint Helier","alt_spellings":"JE","relevance":0.5,"region":"Europe","subregion":"Northern Europe"},
{"name":"Jordan","tld":".jo","cca2":"JO","ccn3":400,"cca3":"JOR","currency":"JOD","calling_code":"962","capital":"Amman","alt_spellings":"JO","relevance":0,"region":"Asia","subregion":"Western Asia"},
{"name":"Kazakhstan","tld":".kz","cca2":"KZ","ccn3":398,"cca3":"KAZ","currency":"KZT","calling_code":"76,77","capital":"Astana","alt_spellings":"KZ","relevance":0,"region":"Asia","subregion":"Central Asia"},
{"name":"Kenya","tld":".ke","cca2":"KE","ccn3":404,"cca3":"KEN","currency":"KES","calling_code":"254","capital":"Nairobi","alt_spellings":"KE","relevance":0,"region":"Africa","subregion":"Eastern Africa"},
{"name":"Kiribati","tld":".ki","cca2":"KI","ccn3":296,"cca3":"KIR","currency":"AUD","calling_code":"686","capital":"South Tarawa","alt_spellings":"KI","relevance":0,"region":"Oceania","subregion":"Micronesia"},
{"name":"Kuwait","tld":".kw","cca2":"KW","ccn3":414,"cca3":"KWT","currency":"KWD","calling_code":"965","capital":"Kuwait City","alt_spellings":"KW","relevance":0,"region":"Asia","subregion":"Western Asia"},
{"name":"Kyrgyzstan","tld":".kg","cca2":"KG","ccn3":417,"cca3":"KGZ","currency":"KGS","calling_code":"996","capital":"Bishkek","alt_spellings":"KG","relevance":0,"region":"Asia","subregion":"Central Asia"},
{"name":"Laos","tld":".la","cca2":"LA","ccn3":418,"cca3":"LAO","currency":"LAK","calling_code":"856","capital":"Vientiane","alt_spellings":"LA","relevance":0,"region":"Asia","subregion":"South-Eastern,Asia"},
{"name":"Latvia","tld":".lv","cca2":"LV","ccn3":428,"cca3":"LVA","currency":"LVL","calling_code":"371","capital":"Riga","alt_spellings":"LV,Latvija","relevance":0,"region":"Europe","subregion":"Northern Europe"},
{"name":"Lebanon","tld":".lb","cca2":"LB","ccn3":422,"cca3":"LBN","currency":"LBP","calling_code":"961","capital":"Beirut","alt_spellings":"LB","relevance":0,"region":"Asia","subregion":"Western Asia"},
{"name":"Lesotho","tld":".ls","cca2":"LS","ccn3":426,"cca3":"LSO","currency":"LSL,ZAR","calling_code":"266","capital":"Maseru","alt_spellings":"LS","relevance":0,"region":"Africa","subregion":"Southern Africa"},
{"name":"Liberia","tld":".lr","cca2":"LR","ccn3":430,"cca3":"LBR","currency":"LRD","calling_code":"231","capital":"Monrovia","alt_spellings":"LR","relevance":0,"region":"Africa","subregion":"Western Africa"},
{"name":"Libya","tld":".ly","cca2":"LY","ccn3":434,"cca3":"LBY","currency":"LYD","calling_code":"218","capital":"Tripoli","alt_spellings":"LY","relevance":0,"region":"Africa","subregion":"Northern Africa"},
{"name":"Liechtenstein","tld":".li","cca2":"LI","ccn3":438,"cca3":"LIE","currency":"CHF","calling_code":"423","capital":"Vaduz","alt_spellings":"LI","relevance":0,"region":"Europe","subregion":"Western Europe"},
{"name":"Lithuania","tld":".lt","cca2":"LT","ccn3":440,"cca3":"LTU","currency":"LTL","calling_code":"370","capital":"Vilnius","alt_spellings":"LT,Lietuva","relevance":0,"region":"Europe","subregion":"Northern Europe"},
{"name":"Luxembourg","tld":".lu","cca2":"LU","ccn3":442,"cca3":"LUX","currency":"EUR","calling_code":"352","capital":"Luxembourg","alt_spellings":"LU","relevance":0,"region":"Europe","subregion":"Western Europe"},
{"name":"Macao","tld":".mo","cca2":"MO","ccn3":446,"cca3":"MAC","currency":"MOP","calling_code":"853","capital":"","alt_spellings":"MO","relevance":0,"region":"Asia","subregion":"Eastern Asia"},
{"name":"Macedonia","tld":".mk","cca2":"MK","ccn3":807,"cca3":"MKD","currency":"MKD","calling_code":"389","capital":"Skopje","alt_spellings":"MK","relevance":0,"region":"Europe","subregion":"Southern Europe"},
{"name":"Madagascar","tld":".mg","cca2":"MG","ccn3":450,"cca3":"MDG","currency":"MGA","calling_code":"261","capital":"Antananarivo","alt_spellings":"MG,Madagasikara","relevance":0,"region":"Africa","subregion":"Eastern Africa"},
{"name":"Malawi","tld":".mw","cca2":"MW","ccn3":454,"cca3":"MWI","currency":"MWK","calling_code":"265","capital":"Lilongwe","alt_spellings":"MW","relevance":0,"region":"Africa","subregion":"Eastern Africa"},
{"name":"Malaysia","tld":".my","cca2":"MY","ccn3":458,"cca3":"MYS","currency":"MYR","calling_code":"60","capital":"Kuala Lumpur","alt_spellings":"MY","relevance":0,"region":"Asia","subregion":"South-Eastern,Asia"},
{"name":"Maldives","tld":".mv","cca2":"MV","ccn3":462,"cca3":"MDV","currency":"MVR","calling_code":"960","capital":"Mal\u00e9","alt_spellings":"MV","relevance":0,"region":"Asia","subregion":"Southern Asia"},
{"name":"Mali","tld":".ml","cca2":"ML","ccn3":466,"cca3":"MLI","currency":"XOF","calling_code":"223","capital":"Bamako","alt_spellings":"ML","relevance":0,"region":"Africa","subregion":"Western Africa"},
{"name":"Malta","tld":".mt","cca2":"MT","ccn3":470,"cca3":"MLT","currency":"EUR","calling_code":"356","capital":"Valletta","alt_spellings":"MT","relevance":0,"region":"Europe","subregion":"Southern Europe"},
{"name":"Marshall Islands","tld":".mh","cca2":"MH","ccn3":584,"cca3":"MHL","currency":"USD","calling_code":"692","capital":"Majuro","alt_spellings":"MH","relevance":0.5,"region":"Oceania","subregion":"Micronesia"},
{"name":"Martinique","tld":".mq","cca2":"MQ","ccn3":474,"cca3":"MTQ","currency":"EUR","calling_code":"596","capital":"Fort-de-France","alt_spellings":"MQ","relevance":0,"region":"Americas","subregion":"Caribbean"},
{"name":"Mauritania","tld":".mr","cca2":"MR","ccn3":478,"cca3":"MRT","currency":"MRO","calling_code":"222","capital":"Nouakchott","alt_spellings":"MR","relevance":0,"region":"Africa","subregion":"Western Africa"},
{"name":"Mauritius","tld":".mu","cca2":"MU","ccn3":480,"cca3":"MUS","currency":"MUR","calling_code":"230","capital":"Port Louis","alt_spellings":"MU","relevance":0,"region":"Africa","subregion":"Eastern Africa"},
{"name":"Mayotte","tld":".yt","cca2":"YT","ccn3":175,"cca3":"MYT","currency":"EUR","calling_code":"262","capital":"Mamoudzou","alt_spellings":"YT","relevance":0,"region":"Africa","subregion":"Eastern Africa"},
{"name":"Mexico","tld":".mx","cca2":"MX","ccn3":484,"cca3":"MEX","currency":"MXN,MXV","calling_code":"52","capital":"Mexico City","alt_spellings":"MX,Mexicanos","relevance":1.5,"region":"Americas","subregion":"Central America"},
{"name":"Micronesia","tld":".fm","cca2":"FM","ccn3":583,"cca3":"FSM","currency":"USD","calling_code":"691","capital":"","alt_spellings":"FM","relevance":0,"region":"Oceania","subregion":"Micronesia"},
{"name":"Moldova","tld":".md","cca2":"MD","ccn3":498,"cca3":"MDA","currency":"MDL","calling_code":"373","capital":"Chisinau","alt_spellings":"MD","relevance":0,"region":"Europe","subregion":"Eastern Europe"},
{"name":"Monaco","tld":".mc","cca2":"MC","ccn3":492,"cca3":"MCO","currency":"EUR","calling_code":"377","capital":"Monaco","alt_spellings":"MC","relevance":0,"region":"Europe","subregion":"Western Europe"},
{"name":"Mongolia","tld":".mn","cca2":"MN","ccn3":496,"cca3":"MNG","currency":"MNT","calling_code":"976","capital":"Ulan Bator","alt_spellings":"MN","relevance":0,"region":"Asia","subregion":"Eastern Asia"},
{"name":"Montenegro","tld":".me","cca2":"ME","ccn3":499,"cca3":"MNE","currency":"EUR","calling_code":"382","capital":"Podgorica","alt_spellings":"ME","relevance":0,"region":"Europe","subregion":"Southern Europe"},
{"name":"Montserrat","tld":".ms","cca2":"MS","ccn3":500,"cca3":"MSR","currency":"XCD","calling_code":"1664","capital":"Plymouth","alt_spellings":"MS","relevance":0.5,"region":"Americas","subregion":"Caribbean"},
{"name":"Morocco","tld":".ma","cca2":"MA","ccn3":504,"cca3":"MAR","currency":"MAD","calling_code":"212","capital":"Rabat","alt_spellings":"MA","relevance":0,"region":"Africa","subregion":"Northern Africa"},
{"name":"Mozambique","tld":".mz","cca2":"MZ","ccn3":508,"cca3":"MOZ","currency":"MZN","calling_code":"258","capital":"Maputo","alt_spellings":"MZ,Mo\u00e7ambique","relevance":0,"region":"Africa","subregion":"Eastern Africa"},
{"name":"Myanmar (Burma)","tld":".mm","cca2":"MM","ccn3":104,"cca3":"MMR","currency":"MMK","calling_code":"95","capital":"Naypyidaw","alt_spellings":"MM","relevance":0,"region":"Asia","subregion":"South-Eastern,Asia"},
{"name":"Namibia","tld":".na","cca2":"NA","ccn3":516,"cca3":"NAM","currency":"NAD,ZAR","calling_code":"264","capital":"Windhoek","alt_spellings":"NA,Namibi\u00eb","relevance":0,"region":"Africa","subregion":"Southern Africa"},
{"name":"Nauru","tld":".nr","cca2":"NR","ccn3":520,"cca3":"NRU","currency":"AUD","calling_code":"674","capital":"Yaren","alt_spellings":"NR,Naoero","relevance":0.5,"region":"Oceania","subregion":"Micronesia"},
{"name":"Nepal","tld":".np","cca2":"NP","ccn3":524,"cca3":"NPL","currency":"NPR","calling_code":"977","capital":"Kathmandu","alt_spellings":"NP","relevance":0,"region":"Asia","subregion":"Southern Asia"},
{"name":"Netherlands","tld":".nl","cca2":"NL","ccn3":528,"cca3":"NLD","currency":"EUR","calling_code":"31","capital":"Amsterdam","alt_spellings":"NL,Holland,Nederland","relevance":1.5,"region":"Europe","subregion":"Western Europe"},
{"name":"New Caledonia","tld":".nc","cca2":"NC","ccn3":540,"cca3":"NCL","currency":"XPF","calling_code":"687","capital":"Noum\u00e9a","alt_spellings":"NC","relevance":0.5,"region":"Oceania","subregion":"Melanesia"},
{"name":"New Zealand","tld":".nz","cca2":"NZ","ccn3":554,"cca3":"NZL","currency":"NZD","calling_code":"64","capital":"Wellington","alt_spellings":"NZ,Aotearoa","relevance":0,"region":"Oceania","subregion":"Australia,New Zealand"},
{"name":"Nicaragua","tld":".ni","cca2":"NI","ccn3":558,"cca3":"NIC","currency":"NIO","calling_code":"505","capital":"Managua","alt_spellings":"NI","relevance":0,"region":"Americas","subregion":"Central America"},
{"name":"Niger","tld":".ne","cca2":"NE","ccn3":562,"cca3":"NER","currency":"XOF","calling_code":"227","capital":"Niamey","alt_spellings":"NE,Nijar","relevance":0,"region":"Africa","subregion":"Western Africa"},
{"name":"Nigeria","tld":".ng","cca2":"NG","ccn3":566,"cca3":"NGA","currency":"NGN","calling_code":"234","capital":"Abuja","alt_spellings":"NG,Nijeriya,Na\u00edj\u00edr\u00ed\u00e0","relevance":1.5,"region":"Africa","subregion":"Western Africa"},
{"name":"Niue","tld":".nu","cca2":"NU","ccn3":570,"cca3":"NIU","currency":"NZD","calling_code":"683","capital":"Alofi","alt_spellings":"NU","relevance":0.5,"region":"Oceania","subregion":"Polynesia"},
{"name":"Norfolk Island","tld":".nf","cca2":"NF","ccn3":574,"cca3":"NFK","currency":"AUD","calling_code":"672","capital":"Kingston","alt_spellings":"NF","relevance":0.5,"region":"Oceania","subregion":"Australia,New Zealand"},
{"name":"North Korea","tld":".kp","cca2":"KP","ccn3":408,"cca3":"PRK","currency":"KPW","calling_code":"850","capital":"Pyongyang","alt_spellings":"KP","relevance":0,"region":"Asia","subregion":"Eastern Asia"},
{"name":"Northern Mariana Islands","tld":".mp","cca2":"MP","ccn3":580,"cca3":"MNP","currency":"USD","calling_code":"1670","capital":"Saipan","alt_spellings":"MP","relevance":0.5,"region":"Oceania","subregion":"Micronesia"},
{"name":"Norway","tld":".no","cca2":"NO","ccn3":578,"cca3":"NOR","currency":"NOK","calling_code":"47","capital":"Oslo","alt_spellings":"NO,Norge,Noreg","relevance":1.5,"region":"Europe","subregion":"Northern Europe"},
{"name":"Oman","tld":".om","cca2":"OM","ccn3":512,"cca3":"OMN","currency":"OMR","calling_code":"968","capital":"Muscat","alt_spellings":"OM","relevance":0,"region":"Asia","subregion":"Western Asia"},
{"name":"Pakistan","tld":".pk","cca2":"PK","ccn3":586,"cca3":"PAK","currency":"PKR","calling_code":"92","capital":"Islamabad","alt_spellings":"PK","relevance":2,"region":"Asia","subregion":"Southern Asia"},
{"name":"Palau","tld":".pw","cca2":"PW","ccn3":585,"cca3":"PLW","currency":"USD","calling_code":"680","capital":"Ngerulmud","alt_spellings":"PW","relevance":0.5,"region":"Oceania","subregion":"Micronesia"},
{"name":"Palestinian Territory","tld":".ps","cca2":"PS","ccn3":275,"cca3":"PSE","currency":"","calling_code":"970","capital":"Ramallah","alt_spellings":"PS","relevance":0,"region":"Asia","subregion":"Western Asia"},
{"name":"Panama","tld":".pa","cca2":"PA","ccn3":591,"cca3":"PAN","currency":"PAB,USD","calling_code":"507","capital":"Panama City","alt_spellings":"PA","relevance":0,"region":"Americas","subregion":"Central America"},
{"name":"Papua New Guinea","tld":".pg","cca2":"PG","ccn3":598,"cca3":"PNG","currency":"PGK","calling_code":"675","capital":"Port Moresby","alt_spellings":"PG","relevance":0,"region":"Oceania","subregion":"Melanesia"},
{"name":"Paraguay","tld":".py","cca2":"PY","ccn3":600,"cca3":"PRY","currency":"PYG","calling_code":"595","capital":"Asunci\u00f3n","alt_spellings":"PY","relevance":0,"region":"Americas","subregion":"South America"},
{"name":"Peru","tld":".pe","cca2":"PE","ccn3":604,"cca3":"PER","currency":"PEN","calling_code":"51","capital":"Lima","alt_spellings":"PE","relevance":0,"region":"Americas","subregion":"South America"},
{"name":"Philippines","tld":".ph","cca2":"PH","ccn3":608,"cca3":"PHL","currency":"PHP","calling_code":"63","capital":"Manila","alt_spellings":"PH,Pilipinas","relevance":1.5,"region":"Asia","subregion":"South-Eastern,Asia"},
{"name":"Pitcairn","tld":".pn","cca2":"PN","ccn3":612,"cca3":"PCN","currency":"NZD","calling_code":"64","capital":"Adamstown","alt_spellings":"PN","relevance":0.5,"region":"Oceania","subregion":"Polynesia"},
{"name":"Poland","tld":".pl","cca2":"PL","ccn3":616,"cca3":"POL","currency":"PLN","calling_code":"48","capital":"Warsaw","alt_spellings":"PL,Polska","relevance":1.25,"region":"Europe","subregion":"Eastern Europe"},
{"name":"Portugal","tld":".pt","cca2":"PT","ccn3":620,"cca3":"PRT","currency":"EUR","calling_code":"351","capital":"Lisbon","alt_spellings":"PT,Portuguesa","relevance":1.5,"region":"Europe","subregion":"Southern Europe"},
{"name":"Puerto Rico","tld":".pr","cca2":"PR","ccn3":630,"cca3":"PRI","currency":"USD","calling_code":"1787,1939","capital":"San Juan","alt_spellings":"PR","relevance":0,"region":"Americas","subregion":"Caribbean"},
{"name":"Qatar","tld":".qa","cca2":"QA","ccn3":634,"cca3":"QAT","currency":"QAR","calling_code":"974","capital":"Doha","alt_spellings":"QA","relevance":0,"region":"Asia","subregion":"Western Asia"},
{"name":"R\u00e9union","tld":".re","cca2":"RE","ccn3":638,"cca3":"REU","currency":"EUR","calling_code":"262","capital":"","alt_spellings":"RE,Reunion","relevance":0,"region":"Africa","subregion":"Eastern Africa"},
{"name":"Romania","tld":".ro","cca2":"RO","ccn3":642,"cca3":"ROU","currency":"RON","calling_code":"40","capital":"Bucharest","alt_spellings":"RO,Rumania,Roumania,Rom\u00e2nia","relevance":0,"region":"Europe","subregion":"Eastern Europe"},
{"name":"Russian Federation","tld":".ru","cca2":"RU","ccn3":643,"cca3":"RUS","currency":"RUB","calling_code":"7","capital":"Moscow","alt_spellings":"RU,Rossiya","relevance":2.5,"region":"Europe","subregion":"Eastern Europe"},
{"name":"Rwanda","tld":".rw","cca2":"RW","ccn3":646,"cca3":"RWA","currency":"RWF","calling_code":"250","capital":"Kigali","alt_spellings":"RW","relevance":0,"region":"Africa","subregion":"Eastern Africa"},
{"name":"Saint Barth\u00e9lemy","tld":".bl","cca2":"BL","ccn3":652,"cca3":"BLM","currency":"EUR","calling_code":"590","capital":"Gustavia","alt_spellings":"BL,St. Barthelemy","relevance":0,"region":"Americas","subregion":"Caribbean"},
{"name":"Saint Helena","tld":".sh","cca2":"SH","ccn3":654,"cca3":"SHN","currency":"SHP","calling_code":"290","capital":"Jamestown","alt_spellings":"SH,St.","relevance":0,"region":"Africa","subregion":"Western Africa"},
{"name":"Saint Kitts and Nevis","tld":".kn","cca2":"KN","ccn3":659,"cca3":"KNA","currency":"XCD","calling_code":"1869","capital":"Basseterre","alt_spellings":"KN,St.","relevance":0,"region":"Americas","subregion":"Caribbean"},
{"name":"Saint Lucia","tld":".lc","cca2":"LC","ccn3":662,"cca3":"LCA","currency":"XCD","calling_code":"1758","capital":"Castries","alt_spellings":"LC,St.","relevance":0,"region":"Americas","subregion":"Caribbean"},
{"name":"Saint Martin","tld":".mf","cca2":"MF","ccn3":663,"cca3":"MAF","currency":"EUR","calling_code":"590","capital":"Marigot","alt_spellings":"MF,St.","relevance":0,"region":"Americas","subregion":"Caribbean"},
{"name":"Saint Pierre and Miquelon","tld":".pm","cca2":"PM","ccn3":666,"cca3":"SPM","currency":"EUR","calling_code":"508","capital":"Saint-Pierre","alt_spellings":"PM,St.","relevance":0,"region":"Americas","subregion":"Northern America"},
{"name":"Saint Vincent and the Grenadines","tld":".vc","cca2":"VC","ccn3":670,"cca3":"VCT","currency":"XCD","calling_code":"1784","capital":"Kingstown","alt_spellings":"VC,St.","relevance":0,"region":"Americas","subregion":"Caribbean"},
{"name":"Samoa","tld":".ws","cca2":"WS","ccn3":882,"cca3":"WSM","currency":"WST","calling_code":"685","capital":"Apia","alt_spellings":"WS","relevance":0,"region":"Oceania","subregion":"Polynesia"},
{"name":"San Marino","tld":".sm","cca2":"SM","ccn3":674,"cca3":"SMR","currency":"EUR","calling_code":"378","capital":"City of San Marino","alt_spellings":"SM","relevance":0,"region":"Europe","subregion":"Southern Europe"},
{"name":"S\u00e3o Tom\u00e9 and Pr\u00edncipe","tld":".st","cca2":"ST","ccn3":678,"cca3":"STP","currency":"STD","calling_code":"239","capital":"S\u00e3o Tom\u00e9","alt_spellings":"ST","relevance":0,"region":"Africa","subregion":"Middle Africa"},
{"name":"Saudi Arabia","tld":".sa","cca2":"SA","ccn3":682,"cca3":"SAU","currency":"SAR","calling_code":"966","capital":"Riyadh","alt_spellings":"SA","relevance":0,"region":"Asia","subregion":"Western Asia"},
{"name":"Senegal","tld":".sn","cca2":"SN","ccn3":686,"cca3":"SEN","currency":"XOF","calling_code":"221","capital":"Dakar","alt_spellings":"SN,S\u00e9n\u00e9gal","relevance":0,"region":"Africa","subregion":"Western Africa"},
{"name":"Serbia","tld":".rs","cca2":"RS","ccn3":688,"cca3":"SRB","currency":"RSD","calling_code":"381","capital":"Belgrade","alt_spellings":"RS,Srbija","relevance":0,"region":"Europe","subregion":"Southern Europe"},
{"name":"Seychelles","tld":".sc","cca2":"SC","ccn3":690,"cca3":"SYC","currency":"SCR","calling_code":"248","capital":"Victoria","alt_spellings":"SC","relevance":0.5,"region":"Africa","subregion":"Eastern Africa"},
{"name":"Sierra Leone","tld":".sl","cca2":"SL","ccn3":694,"cca3":"SLE","currency":"SLL","calling_code":"232","capital":"Freetown","alt_spellings":"SL","relevance":0,"region":"Africa","subregion":"Western Africa"},
{"name":"Singapore","tld":".sg","cca2":"SG","ccn3":702,"cca3":"SGP","currency":"SGD","calling_code":"65","capital":"Singapore","alt_spellings":"SG,Singapura","relevance":0,"region":"Asia","subregion":"South-Eastern,Asia"},
{"name":"Sint Maarten","tld":".sx","cca2":"SX","ccn3":534,"cca3":"SXM","currency":"ANG","calling_code":"1721","capital":"Philipsburg","alt_spellings":"SX","relevance":0,"region":"","subregion":""},
{"name":"Slovakia","tld":".sk","cca2":"SK","ccn3":703,"cca3":"SVK","currency":"EUR","calling_code":"421","capital":"Bratislava","alt_spellings":"SK,Slovensk\u00e1 republika,Slovensko","relevance":0,"region":"Europe","subregion":"Eastern Europe"},
{"name":"Slovenia","tld":".si","cca2":"SI","ccn3":705,"cca3":"SVN","currency":"EUR","calling_code":"386","capital":"Ljubljana","alt_spellings":"SI,Slovenija","relevance":0,"region":"Europe","subregion":"Southern Europe"},
{"name":"Solomon Islands","tld":".sb","cca2":"SB","ccn3":90,"cca3":"SLB","currency":"SDB","calling_code":"677","capital":"Honiara","alt_spellings":"SB","relevance":0,"region":"Oceania","subregion":"Melanesia"},
{"name":"Somalia","tld":".so","cca2":"SO","ccn3":706,"cca3":"SOM","currency":"SOS","calling_code":"252","capital":"Mogadishu","alt_spellings":"SO","relevance":0,"region":"Africa","subregion":"Eastern Africa"},
{"name":"South Africa","tld":".za","cca2":"ZA","ccn3":710,"cca3":"ZAF","currency":"ZAR","calling_code":"27","capital":"Cape Town","alt_spellings":"ZA,RSA,Suid-Afrika","relevance":0,"region":"Africa","subregion":"Southern Africa"},
{"name":"South Georgia","tld":".gs","cca2":"GS","ccn3":239,"cca3":"SGS","currency":"GBP","calling_code":"500","capital":"","alt_spellings":"GS","relevance":0,"region":"Americas","subregion":"South America"},
{"name":"South Korea","tld":".kr","cca2":"KR","ccn3":410,"cca3":"KOR","currency":"KRW","calling_code":"82","capital":"Seoul","alt_spellings":"KR","relevance":1.5,"region":"Asia","subregion":"Eastern Asia"},
{"name":"South Sudan","tld":".ss","cca2":"SS","ccn3":728,"cca3":"SSD","currency":"SSP","calling_code":"211","capital":"Juba","alt_spellings":"SS","relevance":0,"region":"","subregion":""},
{"name":"Spain","tld":".es","cca2":"ES","ccn3":724,"cca3":"ESP","currency":"EUR","calling_code":"34","capital":"Madrid","alt_spellings":"ES,Espa\u00f1a","relevance":2,"region":"Europe","subregion":"Southern Europe"},
{"name":"Sri Lanka","tld":".lk","cca2":"LK","ccn3":144,"cca3":"LKA","currency":"LKR","calling_code":"94","capital":"Colombo","alt_spellings":"LK","relevance":0,"region":"Asia","subregion":"Southern Asia"},
{"name":"Sudan","tld":".sd","cca2":"SD","ccn3":729,"cca3":"SDN","currency":"SDG","calling_code":"249","capital":"Khartoum","alt_spellings":"SD","relevance":0,"region":"Africa","subregion":"Northern Africa"},
{"name":"Suriname","tld":".sr","cca2":"SR","ccn3":740,"cca3":"SUR","currency":"SRD","calling_code":"597","capital":"Paramaribo","alt_spellings":"SR,Sarnam,Sranangron","relevance":0,"region":"Americas","subregion":"South America"},
{"name":"Svalbard and Jan Mayen","tld":".sj","cca2":"SJ","ccn3":744,"cca3":"SJM","currency":"NOK","calling_code":"4779","capital":"Longyearbyen","alt_spellings":"SJ","relevance":0.5,"region":"Europe","subregion":"Northern Europe"},
{"name":"Swaziland","tld":".sz","cca2":"SZ","ccn3":748,"cca3":"SWZ","currency":"SZL","calling_code":"268","capital":"Lobamba","alt_spellings":"SZ,weSwatini,Swatini,Ngwane","relevance":0,"region":"Africa","subregion":"Southern Africa"},
{"name":"Sweden","tld":".se","cca2":"SE","ccn3":752,"cca3":"SWE","currency":"SEK","calling_code":"46","capital":"Stockholm","alt_spellings":"SE,Sverige","relevance":1.5,"region":"Europe","subregion":"Northern Europe"},
{"name":"Switzerland","tld":".ch","cca2":"CH","ccn3":756,"cca3":"CHE","currency":"CHE,CHF,CHW","calling_code":"41","capital":"Bern","alt_spellings":"CH,Swiss Confederation,Schweiz,Suisse,Svizzera,Svizra","relevance":1.5,"region":"Europe","subregion":"Western Europe"},
{"name":"Syrian Arab Republic","tld":".sy","cca2":"SY","ccn3":760,"cca3":"SYR","currency":"SYP","calling_code":"963","capital":"Damascus","alt_spellings":"SY,Syria","relevance":0,"region":"Asia","subregion":"Western Asia"},
{"name":"Taiwan","tld":".tw","cca2":"TW","ccn3":158,"cca3":"TWN","currency":"TWD","calling_code":"886","capital":"Taipei","alt_spellings":"TW","relevance":0,"region":"Asia","subregion":"Eastern Asia"},
{"name":"Tajikistan","tld":".tj","cca2":"TJ","ccn3":762,"cca3":"TJK","currency":"TJS","calling_code":"992","capital":"Dushanbe","alt_spellings":"TJ,To\u00e7ikiston","relevance":0,"region":"Asia","subregion":"Central Asia"},
{"name":"Tanzania","tld":".tz","cca2":"TZ","ccn3":834,"cca3":"TZA","currency":"TZS","calling_code":"255","capital":"Dodoma","alt_spellings":"TZ","relevance":0,"region":"Africa","subregion":"Eastern Africa"},
{"name":"Thailand","tld":".th","cca2":"TH","ccn3":764,"cca3":"THA","currency":"THB","calling_code":"66","capital":"Bangkok","alt_spellings":"TH,Prathet,Thai","relevance":0,"region":"Asia","subregion":"South-Eastern,Asia"},
{"name":"Timor-Leste","tld":".tl","cca2":"TL","ccn3":626,"cca3":"TLS","currency":"USD","calling_code":"670","capital":"Dili","alt_spellings":"TL","relevance":0,"region":"Asia","subregion":"South-Eastern,Asia"},
{"name":"Togo","tld":".tg","cca2":"TG","ccn3":768,"cca3":"TGO","currency":"XOF","calling_code":"228","capital":"Lom\u00e9","alt_spellings":"TG,Togolese","relevance":0,"region":"Africa","subregion":"Western Africa"},
{"name":"Tokelau","tld":".tk","cca2":"TK","ccn3":772,"cca3":"TKL","currency":"NZD","calling_code":"690","capital":"Fakaofo","alt_spellings":"TK","relevance":0.5,"region":"Oceania","subregion":"Polynesia"},
{"name":"Tonga","tld":".to","cca2":"TO","ccn3":776,"cca3":"TON","currency":"TOP","calling_code":"676","capital":"Nuku'alofa","alt_spellings":"TO","relevance":0,"region":"Oceania","subregion":"Polynesia"},
{"name":"Trinidad and Tobago","tld":".tt","cca2":"TT","ccn3":780,"cca3":"TTO","currency":"TTD","calling_code":"1868","capital":"Port of Spain","alt_spellings":"TT","relevance":0,"region":"Americas","subregion":"Caribbean"},
{"name":"Tunisia","tld":".tn","cca2":"TN","ccn3":788,"cca3":"TUN","currency":"TND","calling_code":"216","capital":"Tunis","alt_spellings":"TN","relevance":0,"region":"Africa","subregion":"Northern Africa"},
{"name":"Turkey","tld":".tr","cca2":"TR","ccn3":792,"cca3":"TUR","currency":"TRY","calling_code":"90","capital":"Ankara","alt_spellings":"TR,T\u00fcrkiye,Turkiye","relevance":0,"region":"Asia","subregion":"Western Asia"},
{"name":"Turkmenistan","tld":".tm","cca2":"TM","ccn3":795,"cca3":"TKM","currency":"TMT","calling_code":"993","capital":"Ashgabat","alt_spellings":"TM,T\u00fcrkmenistan","relevance":0,"region":"Asia","subregion":"Central Asia"},
{"name":"Turks and Caicos Islands","tld":".tc","cca2":"TC","ccn3":796,"cca3":"TCA","currency":"USD","calling_code":"1649","capital":"Cockburn Town","alt_spellings":"TC","relevance":0.5,"region":"Americas","subregion":"Caribbean"},
{"name":"Tuvalu","tld":".tv","cca2":"TV","ccn3":798,"cca3":"TUV","currency":"AUD","calling_code":"688","capital":"Funafuti","alt_spellings":"TV","relevance":0.5,"region":"Oceania","subregion":"Polynesia"},
{"name":"Uganda","tld":".ug","cca2":"UG","ccn3":800,"cca3":"UGA","currency":"UGX","calling_code":"256","capital":"Kampala","alt_spellings":"UG","relevance":0,"region":"Africa","subregion":"Eastern Africa"},
{"name":"Ukraine","tld":".ua","cca2":"UA","ccn3":804,"cca3":"UKR","currency":"UAH","calling_code":"380","capital":"Kiev","alt_spellings":"UA,Ukrayina","relevance":0,"region":"Europe","subregion":"Eastern Europe"},
{"name":"United Arab Emirates","tld":".ae","cca2":"AE","ccn3":784,"cca3":"ARE","currency":"AED","calling_code":"971","capital":"Abu Dhabi","alt_spellings":"AE,UAE","relevance":0,"region":"Asia","subregion":"Western Asia"},
{"name":"United Kingdom","tld":".uk","cca2":"GB","ccn3":826,"cca3":"GBR","currency":"GBP","calling_code":"44","capital":"London","alt_spellings":"GB,Great Britain,England,UK,Wales,Scotland,Northern Ireland","relevance":2.5,"region":"Europe","subregion":"Northern Europe"},
{"name":"United States","tld":".us","cca2":"US","ccn3":840,"cca3":"USA","currency":"USD,USN,USS","calling_code":"1","capital":"Washington D.C.","alt_spellings":"US,USA,United States of America","relevance":3.5,"region":"Americas","subregion":"Northern America"},
{"name":"United States Minor Outlying Islands","tld":".us","cca2":"UM","ccn3":581,"cca3":"UMI","currency":"USD","calling_code":"","capital":"","alt_spellings":"UM","relevance":0,"region":"Americas","subregion":"Northern America"},
{"name":"Uruguay","tld":".uy","cca2":"UY","ccn3":858,"cca3":"URY","currency":"UYI,UYU","calling_code":"598","capital":"Montevideo","alt_spellings":"UY","relevance":0,"region":"Americas","subregion":"South America"},
{"name":"Uzbekistan","tld":".uz","cca2":"UZ","ccn3":860,"cca3":"UZB","currency":"UZS","calling_code":"998","capital":"Tashkent","alt_spellings":"UZ,O'zbekstan,O\u2018zbekiston","relevance":0,"region":"Asia","subregion":"Central Asia"},
{"name":"Vanuatu","tld":".vu","cca2":"VU","ccn3":548,"cca3":"VUT","currency":"VUV","calling_code":"678","capital":"Port Vila","alt_spellings":"VU","relevance":0,"region":"Oceania","subregion":"Melanesia"},
{"name":"Venezuela","tld":".ve","cca2":"VE","ccn3":862,"cca3":"VEN","currency":"VEF","calling_code":"58","capital":"Caracas","alt_spellings":"VE","relevance":0,"region":"Americas","subregion":"South America"},
{"name":"Vietnam","tld":".vn","cca2":"VN","ccn3":704,"cca3":"VNM","currency":"VND","calling_code":"84","capital":"Hanoi","alt_spellings":"VN,Viet,Nam","relevance":1.5,"region":"Asia","subregion":"South-Eastern,Asia"},
{"name":"Virgin Islands (British)","tld":".vg","cca2":"VG","ccn3":92,"cca3":"VGB","currency":"USD","calling_code":"1284","capital":"","alt_spellings":"VG","relevance":0.5,"region":"Americas","subregion":"Caribbean"},
{"name":"Virgin Islands (U.S.)","tld":".vi","cca2":"VI","ccn3":850,"cca3":"VIR","currency":"USD","calling_code":"1340","capital":"","alt_spellings":"VI","relevance":0.5,"region":"Americas","subregion":"Caribbean"},
{"name":"Wallis and Futuna","tld":".wf","cca2":"WF","ccn3":876,"cca3":"WLF","currency":"XPF","calling_code":"681","capital":"Mata-Utu","alt_spellings":"WF","relevance":0.5,"region":"Oceania","subregion":"Polynesia"},
{"name":"Western Sahara","tld":".eh","cca2":"EH","ccn3":732,"cca3":"ESH","currency":"MAD,DZD,MRO","calling_code":"212","capital":"El Aai\u00fan","alt_spellings":"EH","relevance":0,"region":"Africa","subregion":"Northern Africa"},
{"name":"Yemen","tld":".ye","cca2":"YE","ccn3":887,"cca3":"YEM","currency":"YER","calling_code":"967","capital":"Sana'a","alt_spellings":"YE","relevance":0,"region":"Asia","subregion":"Western Asia"},
{"name":"Zambia","tld":".zm","cca2":"ZM","ccn3":894,"cca3":"ZMB","currency":"ZMK","calling_code":"260","capital":"Lusaka","alt_spellings":"ZM","relevance":0,"region":"Africa","subregion":"Eastern Africa"},
{"name":"Zimbabwe","tld":".zw","cca2":"ZW","ccn3":716,"cca3":"ZWE","currency":"ZWL","calling_code":"263","capital":"Harare","alt_spellings":"ZW","relevance":0,"region":"Africa","subregion":"Eastern Africa"}]
